FLOCK 4H-10             
1 66713U 25276AZ  25362.63460470  .00013575  00000+0  68244-3 0  9990
2 66713  97.4384  74.1075 0004061 228.4614 131.6272 15.17361547  4536
FLOCK 4H-11             
1 66714U 25276BA  25362.95690070  .00017759  00000+0  87670-3 0  9999
2 66714  97.4409  74.4529 0002205 243.1009 117.0000 15.17942212  4588
FLOCK 4H-12             
1 66715U 25276BB  25362.91668981 -.00023339  00000+0 -11436-2 0  9991
2 66715  97.4391  74.4153 0002373 164.0864  22.6266 15.18167935  1302
FLOCK 4H-13             
1 66716U 25276BC  25362.94587628  .00011248  00000+0  55151-3 0  9990
2 66716  97.4425  74.4670 0002061 134.2085 225.9319 15.18288294  4585
FLOCK 4H-14             
1 66717U 25276BD  25362.94327719  .00011201  00000+0  54675-3 0  9993
2 66717  97.4412  74.4655 0001933 125.3415 234.8000 15.18443887  3834
FLOCK 4H-15             
1 66718U 25276BE  25362.90090271  .00009479  00000+0  48027-3 0  9998
2 66718  97.4416  74.3732 0003335 240.0436 120.0467 15.17181641  4571
FLOCK 4H-16             
1 66719U 25276BF  25362.83281432  .00021468  00000+0  10778-2 0  9995
2 66719  97.4431  74.3173 0003475 225.3209 134.7742 15.17309907  4561
FLOCK 4H-17             
1 66720U 25276BG  25362.88252793  .00136135  00000+0  65395-2 0  9993
2 66720  97.4434  74.4073 0003823  46.6307 313.5245 15.18213941  4575
FLOCK 4H-18             
1 66721U 25276BH  25362.90022469  .00014362  00000+0  72472-3 0  9994
2 66721  97.4375  74.3560 0002573 252.4072 107.6881 15.17219680  4570
FLOCK 4H-19             
1 66722U 25276BJ  25362.94468427  .00096842  00000+0  46347-2 0  9991
2 66722  97.4384  74.4519 0001802 171.6301 188.4964 15.18541642  3875
FLOCK 4H-20             
1 66723U 25276BK  25362.94397374  .00015715  00000+0  76577-3 0  9993
2 66723  97.4419  74.4690 0003295 152.5861 207.5548 15.18421347  3838
FLOCK 4H-21             
1 66724U 25276BL  25362.94325743  .00021126  00000+0  10263-2 0  9997
2 66724  97.4382  74.4556 0002941 150.6304 209.5096 15.18463943  3835
