CCSDS_OMM_VERS = 2.0
CREATION_DATE  = 
ORIGINATOR     = 

OBJECT_NAME    = FLOCK 4H-10
OBJECT_ID      = 2025-276AZ
CENTER_NAME    = EARTH
REF_FRAME      = TEME
TIME_SYSTEM    = UTC
MEAN_ELEMENT_THEORY = SGP/SGP4

EPOCH          = 2025-12-28T15:13:49.846080
MEAN_MOTION    = 15.17361547
ECCENTRICITY   = .00040614
INCLINATION    = 97.4384
RA_OF_ASC_NODE = 74.1075
ARG_OF_PERICENTER = 228.4614
MEAN_ANOMALY   = 131.6272

EPHEMERIS_TYPE = 0
CLASSIFICATION_TYPE = U
NORAD_CAT_ID   = 66713
ELEMENT_SET_NO = 999
REV_AT_EPOCH   = 453
BSTAR          = .68244427E-3
MEAN_MOTION_DOT = .13575E-3
MEAN_MOTION_DDOT = 0

CCSDS_OMM_VERS = 2.0
CREATION_DATE  = 
ORIGINATOR     = 

OBJECT_NAME    = FLOCK 4H-11
OBJECT_ID      = 2025-276BA
CENTER_NAME    = EARTH
REF_FRAME      = TEME
TIME_SYSTEM    = UTC
MEAN_ELEMENT_THEORY = SGP/SGP4

EPOCH          = 2025-12-28T22:57:56.220480
MEAN_MOTION    = 15.17942212
ECCENTRICITY   = .00022058
INCLINATION    = 97.4409
RA_OF_ASC_NODE = 74.4529
ARG_OF_PERICENTER = 243.1009
MEAN_ANOMALY   = 117.0000

EPHEMERIS_TYPE = 0
CLASSIFICATION_TYPE = U
NORAD_CAT_ID   = 66714
ELEMENT_SET_NO = 999
REV_AT_EPOCH   = 458
BSTAR          = .87670074E-3
MEAN_MOTION_DOT = .17759E-3
MEAN_MOTION_DDOT = 0

CCSDS_OMM_VERS = 2.0
CREATION_DATE  = 
ORIGINATOR     = 

OBJECT_NAME    = FLOCK 4H-12
OBJECT_ID      = 2025-276BB
CENTER_NAME    = EARTH
REF_FRAME      = TEME
TIME_SYSTEM    = UTC
MEAN_ELEMENT_THEORY = SGP/SGP4

EPOCH          = 2025-12-28T22:00:01.999584
MEAN_MOTION    = 15.18167935
ECCENTRICITY   = .00023733
INCLINATION    = 97.4391
RA_OF_ASC_NODE = 74.4153
ARG_OF_PERICENTER = 164.0864
MEAN_ANOMALY   = 22.6266

EPHEMERIS_TYPE = 0
CLASSIFICATION_TYPE = U
NORAD_CAT_ID   = 66715
ELEMENT_SET_NO = 999
REV_AT_EPOCH   = 130
BSTAR          = -.11436456E-2
MEAN_MOTION_DOT = -.23339E-3
MEAN_MOTION_DDOT = 0

CCSDS_OMM_VERS = 2.0
CREATION_DATE  = 
ORIGINATOR     = 

OBJECT_NAME    = FLOCK 4H-13
OBJECT_ID      = 2025-276BC
CENTER_NAME    = EARTH
REF_FRAME      = TEME
TIME_SYSTEM    = UTC
MEAN_ELEMENT_THEORY = SGP/SGP4

EPOCH          = 2025-12-28T22:42:03.710592
MEAN_MOTION    = 15.18288294
ECCENTRICITY   = .0002061
INCLINATION    = 97.4425
RA_OF_ASC_NODE = 74.4670
ARG_OF_PERICENTER = 134.2085
MEAN_ANOMALY   = 225.9319

EPHEMERIS_TYPE = 0
CLASSIFICATION_TYPE = U
NORAD_CAT_ID   = 66716
ELEMENT_SET_NO = 999
REV_AT_EPOCH   = 458
BSTAR          = .55150532E-3
MEAN_MOTION_DOT = .11248E-3
MEAN_MOTION_DDOT = 0

CCSDS_OMM_VERS = 2.0
CREATION_DATE  = 
ORIGINATOR     = 

OBJECT_NAME    = FLOCK 4H-14
OBJECT_ID      = 2025-276BD
CENTER_NAME    = EARTH
REF_FRAME      = TEME
TIME_SYSTEM    = UTC
MEAN_ELEMENT_THEORY = SGP/SGP4

EPOCH          = 2025-12-28T22:38:19.149216
MEAN_MOTION    = 15.18443887
ECCENTRICITY   = .00019335
INCLINATION    = 97.4412
RA_OF_ASC_NODE = 74.4655
ARG_OF_PERICENTER = 125.3415
MEAN_ANOMALY   = 234.8000

EPHEMERIS_TYPE = 0
CLASSIFICATION_TYPE = U
NORAD_CAT_ID   = 66717
ELEMENT_SET_NO = 999
REV_AT_EPOCH   = 383
BSTAR          = .54674502E-3
MEAN_MOTION_DOT = .11201E-3
MEAN_MOTION_DDOT = 0

CCSDS_OMM_VERS = 2.0
CREATION_DATE  = 
ORIGINATOR     = 

OBJECT_NAME    = FLOCK 4H-15
OBJECT_ID      = 2025-276BE
CENTER_NAME    = EARTH
REF_FRAME      = TEME
TIME_SYSTEM    = UTC
MEAN_ELEMENT_THEORY = SGP/SGP4

EPOCH          = 2025-12-28T21:37:17.994144
MEAN_MOTION    = 15.17181641
ECCENTRICITY   = .00033354
INCLINATION    = 97.4416
RA_OF_ASC_NODE = 74.3732
ARG_OF_PERICENTER = 240.0436
MEAN_ANOMALY   = 120.0467

EPHEMERIS_TYPE = 0
CLASSIFICATION_TYPE = U
NORAD_CAT_ID   = 66718
ELEMENT_SET_NO = 999
REV_AT_EPOCH   = 457
BSTAR          = .4802732E-3
MEAN_MOTION_DOT = .9479E-4
MEAN_MOTION_DDOT = 0

CCSDS_OMM_VERS = 2.0
CREATION_DATE  = 
ORIGINATOR     = 

OBJECT_NAME    = FLOCK 4H-16
OBJECT_ID      = 2025-276BF
CENTER_NAME    = EARTH
REF_FRAME      = TEME
TIME_SYSTEM    = UTC
MEAN_ELEMENT_THEORY = SGP/SGP4

EPOCH          = 2025-12-28T19:59:15.157248
MEAN_MOTION    = 15.17309907
ECCENTRICITY   = .00034757
INCLINATION    = 97.4431
RA_OF_ASC_NODE = 74.3173
ARG_OF_PERICENTER = 225.3209
MEAN_ANOMALY   = 134.7742

EPHEMERIS_TYPE = 0
CLASSIFICATION_TYPE = U
NORAD_CAT_ID   = 66719
ELEMENT_SET_NO = 999
REV_AT_EPOCH   = 456
BSTAR          = .10777993E-2
MEAN_MOTION_DOT = .21468E-3
MEAN_MOTION_DDOT = 0

CCSDS_OMM_VERS = 2.0
CREATION_DATE  = 
ORIGINATOR     = 

OBJECT_NAME    = FLOCK 4H-17
OBJECT_ID      = 2025-276BG
CENTER_NAME    = EARTH
REF_FRAME      = TEME
TIME_SYSTEM    = UTC
MEAN_ELEMENT_THEORY = SGP/SGP4

EPOCH          = 2025-12-28T21:10:50.413152
MEAN_MOTION    = 15.18213941
ECCENTRICITY   = .00038236
INCLINATION    = 97.4434
RA_OF_ASC_NODE = 74.4073
ARG_OF_PERICENTER = 46.6307
MEAN_ANOMALY   = 313.5245

EPHEMERIS_TYPE = 0
CLASSIFICATION_TYPE = U
NORAD_CAT_ID   = 66720
ELEMENT_SET_NO = 999
REV_AT_EPOCH   = 457
BSTAR          = .65394694E-2
MEAN_MOTION_DOT = .136135E-2
MEAN_MOTION_DDOT = 0

CCSDS_OMM_VERS = 2.0
CREATION_DATE  = 
ORIGINATOR     = 

OBJECT_NAME    = FLOCK 4H-18
OBJECT_ID      = 2025-276BH
CENTER_NAME    = EARTH
REF_FRAME      = TEME
TIME_SYSTEM    = UTC
MEAN_ELEMENT_THEORY = SGP/SGP4

EPOCH          = 2025-12-28T21:36:19.413216
MEAN_MOTION    = 15.17219680
ECCENTRICITY   = .00025739
INCLINATION    = 97.4375
RA_OF_ASC_NODE = 74.3560
ARG_OF_PERICENTER = 252.4072
MEAN_ANOMALY   = 107.6881

EPHEMERIS_TYPE = 0
CLASSIFICATION_TYPE = U
NORAD_CAT_ID   = 66721
ELEMENT_SET_NO = 999
REV_AT_EPOCH   = 457
BSTAR          = .72472051E-3
MEAN_MOTION_DOT = .14362E-3
MEAN_MOTION_DDOT = 0

CCSDS_OMM_VERS = 2.0
CREATION_DATE  = 
ORIGINATOR     = 

OBJECT_NAME    = FLOCK 4H-19
OBJECT_ID      = 2025-276BJ
CENTER_NAME    = EARTH
REF_FRAME      = TEME
TIME_SYSTEM    = UTC
MEAN_ELEMENT_THEORY = SGP/SGP4

EPOCH          = 2025-12-28T22:40:20.720928
MEAN_MOTION    = 15.18541642
ECCENTRICITY   = .00018024
INCLINATION    = 97.4384
RA_OF_ASC_NODE = 74.4519
ARG_OF_PERICENTER = 171.6301
MEAN_ANOMALY   = 188.4964

EPHEMERIS_TYPE = 0
CLASSIFICATION_TYPE = U
NORAD_CAT_ID   = 66722
ELEMENT_SET_NO = 999
REV_AT_EPOCH   = 387
BSTAR          = .46347179E-2
MEAN_MOTION_DOT = .96842E-3
MEAN_MOTION_DDOT = 0

CCSDS_OMM_VERS = 2.0
CREATION_DATE  = 
ORIGINATOR     = 

OBJECT_NAME    = FLOCK 4H-20
OBJECT_ID      = 2025-276BK
CENTER_NAME    = EARTH
REF_FRAME      = TEME
TIME_SYSTEM    = UTC
MEAN_ELEMENT_THEORY = SGP/SGP4

EPOCH          = 2025-12-28T22:39:19.331136
MEAN_MOTION    = 15.18421347
ECCENTRICITY   = .00032953
INCLINATION    = 97.4419
RA_OF_ASC_NODE = 74.4690
ARG_OF_PERICENTER = 152.5861
MEAN_ANOMALY   = 207.5548

EPHEMERIS_TYPE = 0
CLASSIFICATION_TYPE = U
NORAD_CAT_ID   = 66723
ELEMENT_SET_NO = 999
REV_AT_EPOCH   = 383
BSTAR          = .76577335E-3
MEAN_MOTION_DOT = .15715E-3
MEAN_MOTION_DDOT = 0

CCSDS_OMM_VERS = 2.0
CREATION_DATE  = 
ORIGINATOR     = 

OBJECT_NAME    = FLOCK 4H-21
OBJECT_ID      = 2025-276BL
CENTER_NAME    = EARTH
REF_FRAME      = TEME
TIME_SYSTEM    = UTC
MEAN_ELEMENT_THEORY = SGP/SGP4

EPOCH          = 2025-12-28T22:38:17.441952
MEAN_MOTION    = 15.18463943
ECCENTRICITY   = .00029412
INCLINATION    = 97.4382
RA_OF_ASC_NODE = 74.4556
ARG_OF_PERICENTER = 150.6304
MEAN_ANOMALY   = 209.5096

EPHEMERIS_TYPE = 0
CLASSIFICATION_TYPE = U
NORAD_CAT_ID   = 66724
ELEMENT_SET_NO = 999
REV_AT_EPOCH   = 383
BSTAR          = .10263359E-2
MEAN_MOTION_DOT = .21126E-3
MEAN_MOTION_DDOT = 0

